CCSDS_OMM_VERS = 2.0
CREATION_DATE  = 
ORIGINATOR     = 

OBJECT_NAME    = KUIPER-00187
OBJECT_ID      = 2025-301J
CENTER_NAME    = EARTH
REF_FRAME      = TEME
TIME_SYSTEM    = UTC
MEAN_ELEMENT_THEORY = SGP/SGP4

EPOCH          = 2026-01-07T19:08:42.721152
MEAN_MOTION    = 15.36280141
ECCENTRICITY   = .0004935
INCLINATION    = 51.8711
RA_OF_ASC_NODE = 359.3955
ARG_OF_PERICENTER = 153.7098
MEAN_ANOMALY   = 206.4139

EPHEMERIS_TYPE = 0
CLASSIFICATION_TYPE = U
NORAD_CAT_ID   = 67141
ELEMENT_SET_NO = 999
REV_AT_EPOCH   = 437
BSTAR          = .40272E-3
MEAN_MOTION_DOT = .14108E-3
MEAN_MOTION_DDOT = 0

CCSDS_OMM_VERS = 2.0
CREATION_DATE  = 
ORIGINATOR     = 

OBJECT_NAME    = KUIPER-00188
OBJECT_ID      = 2025-301K
CENTER_NAME    = EARTH
REF_FRAME      = TEME
TIME_SYSTEM    = UTC
MEAN_ELEMENT_THEORY = SGP/SGP4

EPOCH          = 2026-01-07T19:26:37.755744
MEAN_MOTION    = 15.35556295
ECCENTRICITY   = .0007586
INCLINATION    = 51.8706
RA_OF_ASC_NODE = 359.4741
ARG_OF_PERICENTER = 174.0899
MEAN_ANOMALY   = 186.0177

EPHEMERIS_TYPE = 0
CLASSIFICATION_TYPE = U
NORAD_CAT_ID   = 67142
ELEMENT_SET_NO = 999
REV_AT_EPOCH   = 437
BSTAR          = .41172E-3
MEAN_MOTION_DOT = .141E-3
MEAN_MOTION_DDOT = 0

CCSDS_OMM_VERS = 2.0
CREATION_DATE  = 
ORIGINATOR     = 

OBJECT_NAME    = KUIPER-00191
OBJECT_ID      = 2025-301L
CENTER_NAME    = EARTH
REF_FRAME      = TEME
TIME_SYSTEM    = UTC
MEAN_ELEMENT_THEORY = SGP/SGP4

EPOCH          = 2026-01-07T19:22:31.889856
MEAN_MOTION    = 15.35714944
ECCENTRICITY   = .0006624
INCLINATION    = 51.8681
RA_OF_ASC_NODE = 359.4538
ARG_OF_PERICENTER = 167.7185
MEAN_ANOMALY   = 192.3964

EPHEMERIS_TYPE = 0
CLASSIFICATION_TYPE = U
NORAD_CAT_ID   = 67143
ELEMENT_SET_NO = 999
REV_AT_EPOCH   = 440
BSTAR          = .70806E-3
MEAN_MOTION_DOT = .24684E-3
MEAN_MOTION_DDOT = 0

CCSDS_OMM_VERS = 2.0
CREATION_DATE  = 
ORIGINATOR     = 

OBJECT_NAME    = KUIPER-00196
OBJECT_ID      = 2025-301M
CENTER_NAME    = EARTH
REF_FRAME      = TEME
TIME_SYSTEM    = UTC
MEAN_ELEMENT_THEORY = SGP/SGP4

EPOCH          = 2026-01-07T19:04:49.843776
MEAN_MOTION    = 15.36471541
ECCENTRICITY   = .0003873
INCLINATION    = 51.8727
RA_OF_ASC_NODE = 359.3777
ARG_OF_PERICENTER = 130.8346
MEAN_ANOMALY   = 229.2976

EPHEMERIS_TYPE = 0
CLASSIFICATION_TYPE = U
NORAD_CAT_ID   = 67144
ELEMENT_SET_NO = 999
REV_AT_EPOCH   = 437
BSTAR          = .6877E-3
MEAN_MOTION_DOT = .24549E-3
MEAN_MOTION_DDOT = 0

CCSDS_OMM_VERS = 2.0
CREATION_DATE  = 
ORIGINATOR     = 

OBJECT_NAME    = KUIPER-00204
OBJECT_ID      = 2025-301N
CENTER_NAME    = EARTH
REF_FRAME      = TEME
TIME_SYSTEM    = UTC
MEAN_ELEMENT_THEORY = SGP/SGP4

EPOCH          = 2026-01-07T20:00:01.999872
MEAN_MOTION    = 15.31334875
ECCENTRICITY   = .0004654
INCLINATION    = 51.8774
RA_OF_ASC_NODE = 359.2001
ARG_OF_PERICENTER = 106.7438
MEAN_ANOMALY   = 86.2884

EPHEMERIS_TYPE = 0
CLASSIFICATION_TYPE = U
NORAD_CAT_ID   = 67145
ELEMENT_SET_NO = 999
REV_AT_EPOCH   = 448
BSTAR          = -.36148E-1
MEAN_MOTION_DOT = -.1022755E-1
MEAN_MOTION_DDOT = 0

CCSDS_OMM_VERS = 2.0
CREATION_DATE  = 
ORIGINATOR     = 

OBJECT_NAME    = KUIPER-00210
OBJECT_ID      = 2025-301P
CENTER_NAME    = EARTH
REF_FRAME      = TEME
TIME_SYSTEM    = UTC
MEAN_ELEMENT_THEORY = SGP/SGP4

EPOCH          = 2026-01-07T19:43:13.691136
MEAN_MOTION    = 15.34701902
ECCENTRICITY   = .0010467
INCLINATION    = 51.8619
RA_OF_ASC_NODE = 359.5351
ARG_OF_PERICENTER = 190.2734
MEAN_ANOMALY   = 169.8039

EPHEMERIS_TYPE = 0
CLASSIFICATION_TYPE = U
NORAD_CAT_ID   = 67146
ELEMENT_SET_NO = 999
REV_AT_EPOCH   = 454
BSTAR          = .54718E-3
MEAN_MOTION_DOT = .18377E-3
MEAN_MOTION_DDOT = 0

CCSDS_OMM_VERS = 2.0
CREATION_DATE  = 
ORIGINATOR     = 

OBJECT_NAME    = KUIPER-00221
OBJECT_ID      = 2025-301Q
CENTER_NAME    = EARTH
REF_FRAME      = TEME
TIME_SYSTEM    = UTC
MEAN_ELEMENT_THEORY = SGP/SGP4

EPOCH          = 2026-01-07T19:10:49.619424
MEAN_MOTION    = 15.36218488
ECCENTRICITY   = .0004992
INCLINATION    = 51.8719
RA_OF_ASC_NODE = 359.4049
ARG_OF_PERICENTER = 150.0401
MEAN_ANOMALY   = 210.0871

EPHEMERIS_TYPE = 0
CLASSIFICATION_TYPE = U
NORAD_CAT_ID   = 67147
ELEMENT_SET_NO = 999
REV_AT_EPOCH   = 437
BSTAR          = .38529E-3
MEAN_MOTION_DOT = .13452E-3
MEAN_MOTION_DDOT = 0

CCSDS_OMM_VERS = 2.0
CREATION_DATE  = 
ORIGINATOR     = 

OBJECT_NAME    = KUIPER-00232
OBJECT_ID      = 2025-301R
CENTER_NAME    = EARTH
REF_FRAME      = TEME
TIME_SYSTEM    = UTC
MEAN_ELEMENT_THEORY = SGP/SGP4

EPOCH          = 2026-01-07T18:50:31.799328
MEAN_MOTION    = 15.37091207
ECCENTRICITY   = .0002251
INCLINATION    = 51.8742
RA_OF_ASC_NODE = 359.3119
ARG_OF_PERICENTER = 80.4143
MEAN_ANOMALY   = 279.7098

EPHEMERIS_TYPE = 0
CLASSIFICATION_TYPE = U
NORAD_CAT_ID   = 67148
ELEMENT_SET_NO = 999
REV_AT_EPOCH   = 437
BSTAR          = .76939E-3
MEAN_MOTION_DOT = .28082E-3
MEAN_MOTION_DDOT = 0

CCSDS_OMM_VERS = 2.0
CREATION_DATE  = 
ORIGINATOR     = 

OBJECT_NAME    = KUIPER-00241
OBJECT_ID      = 2025-301S
CENTER_NAME    = EARTH
REF_FRAME      = TEME
TIME_SYSTEM    = UTC
MEAN_ELEMENT_THEORY = SGP/SGP4

EPOCH          = 2026-01-07T19:00:01.435392
MEAN_MOTION    = 15.36691841
ECCENTRICITY   = .000284
INCLINATION    = 51.8740
RA_OF_ASC_NODE = 359.3543
ARG_OF_PERICENTER = 125.7076
MEAN_ANOMALY   = 234.4175

EPHEMERIS_TYPE = 0
CLASSIFICATION_TYPE = U
NORAD_CAT_ID   = 67149
ELEMENT_SET_NO = 999
REV_AT_EPOCH   = 470
BSTAR          = .67482E-3
MEAN_MOTION_DOT = .24252E-3
MEAN_MOTION_DDOT = 0

CCSDS_OMM_VERS = 2.0
CREATION_DATE  = 
ORIGINATOR     = 

OBJECT_NAME    = KUIPER-00245
OBJECT_ID      = 2025-301T
CENTER_NAME    = EARTH
REF_FRAME      = TEME
TIME_SYSTEM    = UTC
MEAN_ELEMENT_THEORY = SGP/SGP4

EPOCH          = 2026-01-07T20:00:01.999872
MEAN_MOTION    = 15.31558843
ECCENTRICITY   = .0007246
INCLINATION    = 51.8747
RA_OF_ASC_NODE = 359.3119
ARG_OF_PERICENTER = 163.0817
MEAN_ANOMALY   = 340.3147

EPHEMERIS_TYPE = 0
CLASSIFICATION_TYPE = U
NORAD_CAT_ID   = 67150
ELEMENT_SET_NO = 999
REV_AT_EPOCH   = 386
BSTAR          = -.24465E-1
MEAN_MOTION_DOT = -.700743E-2
MEAN_MOTION_DDOT = 0

CCSDS_OMM_VERS = 2.0
CREATION_DATE  = 
ORIGINATOR     = 

OBJECT_NAME    = KUIPER-00246
OBJECT_ID      = 2025-301U
CENTER_NAME    = EARTH
REF_FRAME      = TEME
TIME_SYSTEM    = UTC
MEAN_ELEMENT_THEORY = SGP/SGP4

EPOCH          = 2026-01-07T19:06:03.356352
MEAN_MOTION    = 15.36438540
ECCENTRICITY   = .0003996
INCLINATION    = 51.8733
RA_OF_ASC_NODE = 359.3824
ARG_OF_PERICENTER = 148.2180
MEAN_ANOMALY   = 211.9048

EPHEMERIS_TYPE = 0
CLASSIFICATION_TYPE = U
NORAD_CAT_ID   = 67151
ELEMENT_SET_NO = 999
REV_AT_EPOCH   = 439
BSTAR          = .71116E-3
MEAN_MOTION_DOT = .25375E-3
MEAN_MOTION_DDOT = 0

CCSDS_OMM_VERS = 2.0
CREATION_DATE  = 
ORIGINATOR     = 

OBJECT_NAME    = KUIPER-00247
OBJECT_ID      = 2025-301V
CENTER_NAME    = EARTH
REF_FRAME      = TEME
TIME_SYSTEM    = UTC
MEAN_ELEMENT_THEORY = SGP/SGP4

EPOCH          = 2026-01-07T19:47:35.522016
MEAN_MOTION    = 15.34412293
ECCENTRICITY   = .0011205
INCLINATION    = 51.8650
RA_OF_ASC_NODE = 359.5592
ARG_OF_PERICENTER = 192.1087
MEAN_ANOMALY   = 167.9630

EPHEMERIS_TYPE = 0
CLASSIFICATION_TYPE = U
NORAD_CAT_ID   = 67152
ELEMENT_SET_NO = 999
REV_AT_EPOCH   = 437
BSTAR          = .57888E-3
MEAN_MOTION_DOT = .1929E-3
MEAN_MOTION_DDOT = 0

CCSDS_OMM_VERS = 2.0
CREATION_DATE  = 
ORIGINATOR     = 

OBJECT_NAME    = KUIPER-00248
OBJECT_ID      = 2025-301W
CENTER_NAME    = EARTH
REF_FRAME      = TEME
TIME_SYSTEM    = UTC
MEAN_ELEMENT_THEORY = SGP/SGP4

EPOCH          = 2026-01-07T19:32:15.781920
MEAN_MOTION    = 15.35172401
ECCENTRICITY   = .0008406
INCLINATION    = 51.8691
RA_OF_ASC_NODE = 359.4972
ARG_OF_PERICENTER = 177.2264
MEAN_ANOMALY   = 182.8770

EPHEMERIS_TYPE = 0
CLASSIFICATION_TYPE = U
NORAD_CAT_ID   = 67153
ELEMENT_SET_NO = 999
REV_AT_EPOCH   = 454
BSTAR          = .85546E-4
MEAN_MOTION_DOT = .2583E-4
MEAN_MOTION_DDOT = 0

CCSDS_OMM_VERS = 2.0
CREATION_DATE  = 
ORIGINATOR     = 

OBJECT_NAME    = KUIPER-00249
OBJECT_ID      = 2025-301X
CENTER_NAME    = EARTH
REF_FRAME      = TEME
TIME_SYSTEM    = UTC
MEAN_ELEMENT_THEORY = SGP/SGP4

EPOCH          = 2026-01-07T19:28:35.206176
MEAN_MOTION    = 15.35518730
ECCENTRICITY   = .0008462
INCLINATION    = 51.8664
RA_OF_ASC_NODE = 359.4781
ARG_OF_PERICENTER = 175.7696
MEAN_ANOMALY   = 184.3363

EPHEMERIS_TYPE = 0
CLASSIFICATION_TYPE = U
NORAD_CAT_ID   = 67154
ELEMENT_SET_NO = 999
REV_AT_EPOCH   = 437
BSTAR          = .58338E-3
MEAN_MOTION_DOT = .20137E-3
MEAN_MOTION_DDOT = 0

CCSDS_OMM_VERS = 2.0
CREATION_DATE  = 
ORIGINATOR     = 

OBJECT_NAME    = KUIPER-00250
OBJECT_ID      = 2025-301Y
CENTER_NAME    = EARTH
REF_FRAME      = TEME
TIME_SYSTEM    = UTC
MEAN_ELEMENT_THEORY = SGP/SGP4

EPOCH          = 2026-01-07T19:17:45.319200
MEAN_MOTION    = 15.36034918
ECCENTRICITY   = .0006687
INCLINATION    = 51.8719
RA_OF_ASC_NODE = 359.4358
ARG_OF_PERICENTER = 165.1094
MEAN_ANOMALY   = 195.0090

EPHEMERIS_TYPE = 0
CLASSIFICATION_TYPE = U
NORAD_CAT_ID   = 67155
ELEMENT_SET_NO = 999
REV_AT_EPOCH   = 440
BSTAR          = .73483E-3
MEAN_MOTION_DOT = .25904E-3
MEAN_MOTION_DDOT = 0

